NORAD_CAT_ID,OBJECT_NAME,OBJECT_TYPE,EPOCH,MEAN_MOTION,ECCENTRICITY,INCLINATION,RA_OF_ASC_NODE,ARG_OF_PERICENTER,MEAN_ANOMALY,BSTAR,MEAN_MOTION_DOT,MEAN_MOTION_DDOT,TLE_LINE0,TLE_LINE1,TLE_LINE2,SEMIMAJOR_AXIS,PERIOD,APOGEE,PERIGEE,DECAYED
55276.0,STARLINK-5261,PAYLOAD,2024-04-06 10:09:13,14.9833192,0.000278,70.0006,355.2358,270.7304,89.3536,-2.0991e-05,-3.43e-06,0.0,0 STARLINK-5261,1 55276U 23010H   24097.42307186 -.00000343  00000-0 -20991-4 0  9991,2 55276  70.0006 355.2358 0002780 270.7304  89.3536 14.98331920 68076,6950.187,96.107,573.984,570.12,0.0
55276.0,STARLINK-5261,PAYLOAD,2024-04-06 22:58:18,14.98328128,0.0002815,70.0004,353.8898,267.3039,92.7797,-3.4692e-05,-5.07e-06,0.0,0 STARLINK-5261,1 55276U 23010H   24097.95715386 -.00000507  00000-0 -34692-4 0  9999,2 55276  70.0004 353.8898 0002815 267.3039  92.7797 14.98328128 68155,6950.199,96.107,574.02,570.107,0.0
55276.0,STARLINK-5261,PAYLOAD,2024-04-07 10:11:14,14.98328632,0.0002473,70.0011,352.7115,275.8122,84.2755,-7.8821e-05,-1.033e-05,0.0,0 STARLINK-5261,1 55276U 23010H   24098.42447620 -.00001033  00000-0 -78821-4 0  9992,2 55276  70.0011 352.7115 0002473 275.8122  84.2755 14.98328632 68228,6950.197,96.107,573.781,570.343,0.0
55276.0,STARLINK-5261,PAYLOAD,2024-04-07 23:00:19,14.98327493,0.0002615,70.0006,351.3653,270.2709,89.8151,-3.4891e-05,-5.09e-06,0.0,0 STARLINK-5261,1 55276U 23010H   24098.95855535 -.00000509  00000-0 -34891-4 0  9994,2 55276  70.0006 351.3653 0002615 270.2709  89.8151 14.98327493 68306,6950.201,96.107,573.883,570.248,0.0
55276.0,STARLINK-5261,PAYLOAD,2024-04-08 02:12:35,14.98325952,0.0002924,69.9996,351.0282,270.1331,89.9493,-7.2208e-05,-9.54e-06,0.0,0 STARLINK-5261,1 55276U 23010H   24099.09207719 -.00000954  00000-0 -72208-4 0  9993,2 55276  69.9996 351.0282 0002924 270.1331  89.9493 14.98325952 68026,6950.205,96.107,574.103,570.038,0.0
55276.0,STARLINK-5261,PAYLOAD,2024-04-08 10:13:15,14.98332256,0.0002917,69.9995,350.1867,272.8065,87.276,-4.5456e-05,-6.35e-06,0.0,0 STARLINK-5261,1 55276U 23010H   24099.42587299 -.00000635  00000-0 -45456-4 0  9995,2 55276  69.9995 350.1867 0002917 272.8065  87.2760 14.98332256 68370,6950.186,96.107,574.078,570.024,0.0
55276.0,STARLINK-5261,PAYLOAD,2024-04-08 23:02:19,14.98334678,0.0002855,70.0,348.8388,267.7332,92.35,5.4805e-05,5.61e-06,0.0,0 STARLINK-5261,1 55276U 23010H   24099.95994843  .00000561  00000-0  54805-4 0  9994,2 55276  70.0000 348.8388 0002855 267.7332  92.3500 14.98334678 68451,6950.178,96.107,574.028,570.059,0.0
55276.0,STARLINK-5261,PAYLOAD,2024-04-09 10:15:16,14.98330649,0.0002895,69.9998,347.6603,267.4548,92.6279,6.0605e-06,-2.1e-07,0.0,0 STARLINK-5261,1 55276U 23010H   24100.42727105 -.00000021  00000-0  60605-5 0  9992,2 55276  69.9998 347.6603 0002895 267.4548  92.6279 14.98330649 68226,6950.191,96.107,574.068,570.044,0.0
55276.0,STARLINK-5261,PAYLOAD,2024-04-09 23:04:20,14.98341072,0.0002626,70.0005,346.3139,268.154,91.9318,6.3768e-05,6.68e-06,0.0,0 STARLINK-5261,1 55276U 23010H   24100.96134354  .00000668  00000-0  63768-4 0  9997,2 55276  70.0005 346.3139 0002626 268.1540  91.9318 14.98341072 68600,6950.159,96.106,573.849,570.199,0.0
55276.0,STARLINK-5261,PAYLOAD,2024-04-10 02:16:36,14.98337949,0.0002611,70.0005,345.9773,268.7016,91.3844,6.4331e-05,6.75e-06,0.0,0 STARLINK-5261,1 55276U 23010H   24101.09486496  .00000675  00000-0  64331-4 0  9994,2 55276  70.0005 345.9773 0002611 268.7016  91.3844 14.98337949 68322,6950.168,96.106,573.848,570.219,0.0
55276.0,STARLINK-5261,PAYLOAD,2024-04-10 19:54:05,14.98329531,0.0002554,70.0004,344.1256,272.2375,87.8492,-0.00010993,-1.404e-05,0.0,0 STARLINK-5261,1 55276U 23010H   24101.82923435 -.00001404  00000-0 -10993-3 0  9991,2 55276  70.0004 344.1256 0002554 272.2375  87.8492 14.98329531 68431,6950.194,96.107,573.834,570.284,0.0
55276.0,STARLINK-5261,PAYLOAD,2024-04-10 21:30:13,14.98329101,0.0002531,70.0004,343.9574,272.0679,88.019,-0.00011151,-1.423e-05,0.0,0 STARLINK-5261,1 55276U 23010H   24101.89599475 -.00001423  00000-0 -11151-3 0  9999,2 55276  70.0004 343.9574 0002531 272.0679  88.0190 14.98329101 68746,6950.196,96.107,573.82,570.302,0.0
55276.0,STARLINK-5261,PAYLOAD,2024-04-11 08:43:10,14.98329713,0.0002698,69.9999,342.7808,268.6906,91.3944,-6.9303e-05,-9.2e-06,0.0,0 STARLINK-5261,1 55276U 23010H   24102.36331260 -.00000920  00000-0 -69303-4 0  9992,2 55276  69.9999 342.7808 0002698 268.6906  91.3944 14.98329713 68812,6950.194,96.107,573.934,570.184,0.0
55276.0,STARLINK-5261,PAYLOAD,2024-04-11 19:56:06,14.98327544,0.0002678,69.9997,341.6016,271.7403,88.3449,0.00011839,1.32e-05,0.0,0 STARLINK-5261,1 55276U 23010H   24102.83062887  .00001320  00000-0  11839-3 0  9993,2 55276  69.9997 341.6016 0002678 271.7403  88.3449 14.98327544 68584,6950.2,96.107,573.927,570.204,0.0
55276.0,STARLINK-5261,PAYLOAD,2024-04-12 02:20:38,14.98338515,0.0002765,69.9997,340.9284,270.3084,89.7758,-3.0134e-05,-4.53e-06,0.0,0 STARLINK-5261,1 55276U 23010H   24103.09766425 -.00000453  00000-0 -30134-4 0  9999,2 55276  69.9997 340.9284 0002765 270.3084  89.7758 14.98338515 68623,6950.167,96.106,573.953,570.11,0.0
55276.0,STARLINK-5261,PAYLOAD,2024-04-12 21:34:15,14.98326699,0.0002829,69.9994,338.9084,270.1091,89.9744,1.1796e-05,4.8e-07,0.0,0 STARLINK-5261,1 55276U 23010H   24103.89878983  .00000048  00000-0  11796-4 0  9991,2 55276  69.9994 338.9084 0002829 270.1091  89.9744 14.98326699 69046,6950.203,96.107,574.034,570.102,0.0
55276.0,STARLINK-5261,PAYLOAD,2024-04-13 02:22:39,14.9832852,0.0002815,69.9995,338.4035,269.8404,90.2433,2.961e-05,2.6e-06,0.0,0 STARLINK-5261,1 55276U 23010H   24104.09906839  .00000260  00000-0  29610-4 0  9996,2 55276  69.9995 338.4035 0002815 269.8404  90.2433 14.98328520 68770,6950.197,96.107,574.019,570.106,0.0
55276.0,STARLINK-5261,PAYLOAD,2024-04-13 20:00:08,14.98329757,0.0002671,70.0,336.5526,260.9755,99.1102,-5.3656e-05,-7.33e-06,0.0,0 STARLINK-5261,1 55276U 23010H   24104.83343006 -.00000733  00000-0 -53656-4 0  9993,2 55276  70.0000 336.5526 0002671 260.9755  99.1102 14.98329757 69185,6950.194,96.107,573.915,570.202,0.0
55276.0,STARLINK-5261,PAYLOAD,2024-04-14 20:02:09,14.98347075,0.0002838,69.9995,334.0256,270.899,89.1844,-0.00034021,-4.152e-05,0.0,0 STARLINK-5261,1 55276U 23010H   24105.83483078 -.00004152  00000-0 -34021-3 0  9991,2 55276  69.9995 334.0256 0002838 270.8990  89.1844 14.98347075 69033,6950.14,96.106,573.978,570.033,0.0
55276.0,STARLINK-5261,PAYLOAD,2024-04-14 21:38:17,14.98326794,0.0002805,69.9994,333.857,268.4378,91.646,-9.0054e-06,-2e-06,0.0,0 STARLINK-5261,1 55276U 23010H   24105.90159105 -.00000200  00000-0 -90054-5 0  9990,2 55276  69.9994 333.8570 0002805 268.4378  91.6460 14.98326794 69346,6950.203,96.107,574.017,570.118,0.0
55276.0,STARLINK-5261,PAYLOAD,2024-04-15 15:15:45,14.98331525,0.0002868,69.9993,332.0059,268.9471,91.136,2.103e-05,1.58e-06,0.0,0 STARLINK-5261,1 55276U 23010H   24106.63594729  .00000158  00000-0  21030-4 0  9993,2 55276  69.9993 332.0059 0002868 268.9471  91.1360 14.98331525 69450,6950.188,96.107,574.046,570.06,0.0
55276.0,STARLINK-5261,PAYLOAD,2024-04-15 21:40:18,14.98331491,0.0002872,69.9992,331.3325,268.7559,91.3271,2.0139e-05,1.47e-06,0.0,0 STARLINK-5261,1 55276U 23010H   24106.90298701  .00000147  00000-0  20139-4 0  9991,2 55276  69.9992 331.3325 0002872 268.7559  91.3271 14.98331491 69496,6950.188,96.107,574.049,570.057,0.0
55276.0,STARLINK-5261,PAYLOAD,2024-04-16 00:52:33,14.98333896,0.0002856,69.9993,330.9962,270.0341,90.049,4.7926e-05,4.79e-06,0.0,0 STARLINK-5261,1 55276U 23010H   24107.03650453  .00000479  00000-0  47926-4 0  9993,2 55276  69.9993 330.9962 0002856 270.0341  90.0490 14.98333896 69216,6950.181,96.107,574.031,570.061,0.0
55276.0,STARLINK-5261,PAYLOAD,2024-04-16 21:42:18,14.98335571,0.0002856,69.9991,328.8073,271.3035,88.7797,5.6537e-05,5.82e-06,0.0,0 STARLINK-5261,1 55276U 23010H   24107.90438125  .00000582  00000-0  56537-4 0  9992,2 55276  69.9991 328.8073 0002856 271.3035  88.7797 14.98335571 69640,6950.176,96.107,574.026,570.056,0.0
55276.0,STARLINK-5261,PAYLOAD,2024-04-17 00:54:33,14.9834338,0.0002786,69.9992,328.4705,271.6004,88.4836,0.00014429,1.63e-05,0.0,0 STARLINK-5261,1 55276U 23010H   24108.03789274  .00001630  00000-0  14429-3 0  9999,2 55276  69.9992 328.4705 0002786 271.6004  88.4836 14.98343380 69367,6950.152,96.106,573.953,570.08,0.0
55276.0,STARLINK-5261,PAYLOAD,2024-04-17 20:08:12,14.98318665,0.0002982,69.9984,326.4506,263.6011,96.4809,-0.00015354,-1.924e-05,0.0,0 STARLINK-5261,1 55276U 23010H   24108.83903699 -.00001924  00000-0 -15354-3 0  9992,2 55276  69.9984 326.4506 0002982 263.6011  96.4809 14.98318665 69482,6950.228,96.108,574.166,570.02,0.0
55276.0,STARLINK-5261,PAYLOAD,2024-04-17 21:44:20,14.98319289,0.0002934,69.9987,326.2834,259.2095,100.8734,-0.00015566,-1.949e-05,0.0,0 STARLINK-5261,1 55276U 23010H   24108.90579686 -.00001949  00000-0 -15566-3 0  9997,2 55276  69.9987 326.2834 0002934 259.2095 100.8734 14.98319289 69791,6950.226,96.108,574.13,570.052,0.0
55276.0,STARLINK-5261,PAYLOAD,2024-04-18 00:56:36,14.98319853,0.000289,69.9989,325.9466,258.0582,102.0253,-0.00014334,-1.802e-05,0.0,0 STARLINK-5261,1 55276U 23010H   24109.03931692 -.00001802  00000-0 -14334-3 0  9991,2 55276  69.9989 325.9466 0002890 258.0582 102.0253 14.98319853 69819,6950.224,96.108,574.098,570.081,0.0
55276.0,STARLINK-5261,PAYLOAD,2024-04-18 20:10:12,14.98333722,0.0002551,70.0,323.9269,256.9438,103.1436,-3.4716e-05,-5.07e-06,0.0,0 STARLINK-5261,1 55276U 23010H   24109.84042607 -.00000507  00000-0 -34716-4 0  9997,2 55276  70.0000 323.9269 0002551 256.9438 103.1436 14.98333722 69632,6950.181,96.107,573.819,570.273,0.0
55276.0,STARLINK-5261,PAYLOAD,2024-04-18 21:46:20,14.98335042,0.0002406,70.0006,323.7592,242.4257,117.6658,-7.9682e-06,-1.88e-06,0.0,0 STARLINK-5261,1 55276U 23010H   24109.90718372 -.00000188  00000-0 -79682-5 0  9990,2 55276  70.0006 323.7592 0002406 242.4257 117.6658 14.98335042 69940,6950.177,96.107,573.715,570.37,0.0
